NORAD_CAT_ID,OBJECT_NAME,OBJECT_TYPE,EPOCH,MEAN_MOTION,ECCENTRICITY,INCLINATION,RA_OF_ASC_NODE,ARG_OF_PERICENTER,MEAN_ANOMALY,BSTAR,MEAN_MOTION_DOT,MEAN_MOTION_DDOT,TLE_LINE0,TLE_LINE1,TLE_LINE2,SEMIMAJOR_AXIS,PERIOD,APOGEE,PERIGEE,DECAYED
53156.0,STARLINK-4087,PAYLOAD,2023-11-08 11:13:24,15.08861184,0.0001945,53.2191,29.7716,102.4086,257.7123,0.0014646,0.00023112,0.0,0 STARLINK-4087,1 53156U 22083AA  23312.46763986  .00023112  00000-0  14646-2 0  9997,2 53156  53.2191  29.7716 0001945 102.4086 257.7123 15.08861184 73330,6917.816,95.436,541.026,538.335,0.0
53156.0,STARLINK-4087,PAYLOAD,2023-11-08 12:48:47,15.08866775,0.0001807,53.2187,29.4739,100.2667,259.8529,0.0015011,0.000237,0.0,0 STARLINK-4087,1 53156U 22083AA  23312.53387779  .00023700  00000-0  15011-2 0  9997,2 53156  53.2187  29.4739 0001807 100.2667 259.8529 15.08866775 72710,6917.799,95.436,540.914,538.414,0.0
53156.0,STARLINK-4087,PAYLOAD,2023-11-08 22:21:04,15.08873993,0.000142,53.2191,27.6908,88.4216,271.6939,0.00098481,0.00015435,0.0,0 STARLINK-4087,1 53156U 22083AA  23312.93130737  .00015435  00000-0  98481-3 0  9990,2 53156  53.2191  27.6908 0001420  88.4216 271.6939 15.08873993 72774,6917.776,95.435,540.624,538.659,0.0
53156.0,STARLINK-4087,PAYLOAD,2023-11-09 04:42:37,15.08869722,0.0001567,53.2188,26.5025,90.2743,269.8428,0.00056487,8.721e-05,0.0,0 STARLINK-4087,1 53156U 22083AA  23313.19626396  .00008721  00000-0  56487-3 0  9990,2 53156  53.2188  26.5025 0001567  90.2743 269.8428 15.08869722 73448,6917.79,95.436,540.739,538.571,0.0
53156.0,STARLINK-4087,PAYLOAD,2023-11-09 12:39:32,15.08877896,0.0001419,53.2189,25.0168,93.578,266.5374,0.00067495,0.00010481,0.0,0 STARLINK-4087,1 53156U 22083AA  23313.52745651  .00010481  00000-0  67495-3 0  9990,2 53156  53.2189  25.0168 0001419  93.5780 266.5374 15.08877896 72864,6917.765,95.435,540.611,538.648,0.0
53156.0,STARLINK-4087,PAYLOAD,2023-11-09 22:11:50,15.0886125,0.0001804,53.2196,23.2299,81.5141,278.6056,0.00017555,2.508e-05,0.0,0 STARLINK-4087,1 53156U 22083AA  23313.92489534  .00002508  00000-0  17555-3 0  9992,2 53156  53.2196  23.2299 0001804  81.5141 278.6056 15.08861250 72928,6917.815,95.436,540.928,538.432,0.0
53156.0,STARLINK-4087,PAYLOAD,2023-11-10 04:33:23,15.08850173,0.0001795,53.2183,22.0428,80.4315,279.688,2.4764e-05,1.06e-06,0.0,0 STARLINK-4087,1 53156U 22083AA  23314.18985625  .00000106  00000-0  24764-4 0  9996,2 53156  53.2183  22.0428 0001795  80.4315 279.6880 15.08850173 73597,6917.849,95.437,540.956,538.473,0.0
53156.0,STARLINK-4087,PAYLOAD,2023-11-10 10:54:56,15.08848205,0.0001404,53.2174,20.8507,86.8541,273.2612,0.00022003,3.216e-05,0.0,0 STARLINK-4087,1 53156U 22083AA  23314.45481482  .00003216  00000-0  22003-3 0  9996,2 53156  53.2174  20.8507 0001404  86.8541 273.2612 15.08848205 73001,6917.855,95.437,540.692,538.749,0.0
53156.0,STARLINK-4087,PAYLOAD,2023-11-11 04:24:10,15.0884316,0.0001519,53.2176,17.5801,89.106,271.0106,0.00012267,1.665e-05,0.0,0 STARLINK-4087,1 53156U 22083AA  23315.18345617  .00001665  00000-0  12267-3 0  9993,2 53156  53.2176  17.5801 0001519  89.1060 271.0106 15.08843160 73742,6917.871,95.437,540.787,538.685,0.0
53156.0,STARLINK-4087,PAYLOAD,2023-11-11 10:45:42,15.08848831,0.0001463,53.2179,16.3898,98.3068,261.809,0.00023629,3.475e-05,0.0,0 STARLINK-4087,1 53156U 22083AA  23315.44841330  .00003475  00000-0  23629-3 0  9990,2 53156  53.2179  16.3898 0001463  98.3068 261.8090 15.08848831 73150,6917.853,95.437,540.73,538.706,0.0
53156.0,STARLINK-4087,PAYLOAD,2023-11-12 09:01:07,15.08837788,0.0001515,53.2173,12.2261,97.2402,262.8762,7.1684e-05,8.53e-06,0.0,0 STARLINK-4087,1 53156U 22083AA  23316.37577882  .00000853  00000-0  71684-4 0  9993,2 53156  53.2173  12.2261 0001515  97.2402 262.8762 15.08837788 73922,6917.887,95.438,540.8,538.704,0.0
53156.0,STARLINK-4087,PAYLOAD,2023-11-13 04:05:44,15.08853954,0.0001516,53.2177,8.6578,99.1088,261.0076,-7.3767e-05,-1.462e-05,0.0,0 STARLINK-4087,1 53156U 22083AA  23317.17064879 -.00001462  00000-0 -73767-4 0  9992,2 53156  53.2177   8.6578 0001516  99.1088 261.0076 15.08853954 74044,6917.838,95.437,540.751,538.654,0.0
53156.0,STARLINK-4087,PAYLOAD,2023-11-13 10:27:16,15.08858783,0.0001497,53.2183,7.4711,92.7092,267.4071,0.00016857,2.397e-05,0.0,0 STARLINK-4087,1 53156U 22083AA  23317.43560593  .00002397  00000-0  16857-3 0  9997,2 53156  53.2183   7.4711 0001497  92.7092 267.4071 15.08858783 73453,6917.823,95.436,540.724,538.652,0.0
53156.0,STARLINK-4087,PAYLOAD,2023-11-13 19:59:35,15.08846189,0.0001434,53.2177,5.6843,94.8796,265.236,6.9815e-05,8.24e-06,0.0,0 STARLINK-4087,1 53156U 22083AA  23317.83305031  .00000824  00000-0  69815-4 0  9991,2 53156  53.2177   5.6843 0001434  94.8796 265.2360 15.08846189 74148,6917.861,95.437,540.718,538.734,0.0
53156.0,STARLINK-4087,PAYLOAD,2023-11-14 03:56:31,15.08835809,0.0001553,53.218,4.2007,91.4989,268.6181,5.8179e-05,6.38e-06,0.0,0 STARLINK-4087,1 53156U 22083AA  23318.16425782  .00000638  00000-0  58179-4 0  9998,2 53156  53.2180   4.2007 0001553  91.4989 268.6181 15.08835809 74198,6917.893,95.438,540.833,538.684,0.0
53156.0,STARLINK-4087,PAYLOAD,2023-11-14 10:18:04,15.08840143,0.0001474,53.2177,3.0097,94.6418,265.4743,0.00010835,1.437e-05,0.0,0 STARLINK-4087,1 53156U 22083AA  23318.42921566  .00001437  00000-0  10835-3 0  9992,2 53156  53.2177   3.0097 0001474  94.6418 265.4743 15.08840143 73605,6917.88,95.438,540.765,538.725,0.0
53156.0,STARLINK-4087,PAYLOAD,2023-11-14 19:50:22,15.08839435,0.0001236,53.2177,1.2199,80.1263,279.9869,1.6773e-05,-2.1e-07,0.0,0 STARLINK-4087,1 53156U 22083AA  23318.82665274 -.00000021  00000-0  16773-4 0  9994,2 53156  53.2177   1.2199 0001236  80.1263 279.9869 15.08839435 73669,6917.882,95.438,540.602,538.892,0.0
53156.0,STARLINK-4087,PAYLOAD,2023-11-15 11:44:14,15.08837972,0.0001689,53.2193,358.2459,87.0993,273.0193,-4.3707e-05,-9.84e-06,0.0,0 STARLINK-4087,1 53156U 22083AA  23319.48905724 -.00000984  00000-0 -43707-4 0  9990,2 53156  53.2193 358.2459 0001689  87.0993 273.0193 15.08837972 74399,6917.887,95.438,540.92,538.583,0.0
53156.0,STARLINK-4087,PAYLOAD,2023-11-15 19:41:10,15.08838941,0.000157,53.2183,356.7613,84.6953,275.4218,-4.6913e-05,-1.035e-05,0.0,0 STARLINK-4087,1 53156U 22083AA  23319.82025789 -.00001035  00000-0 -46913-4 0  9992,2 53156  53.2183 356.7613 0001570  84.6953 275.4218 15.08838941 73818,6917.884,95.438,540.835,538.663,0.0
53156.0,STARLINK-4087,PAYLOAD,2023-11-16 02:02:43,15.08828521,0.0001387,53.2187,355.5722,84.574,275.541,0.00030128,4.509e-05,0.0,0 STARLINK-4087,1 53156U 22083AA  23320.08522579  .00004509  00000-0  30128-3 0  9998,2 53156  53.2187 355.5722 0001387  84.5740 275.5410 15.08828521 74481,6917.915,95.438,540.74,538.821,0.0
53156.0,STARLINK-4087,PAYLOAD,2023-11-16 08:24:15,15.08841302,0.0001363,53.2184,354.3837,80.4218,279.6928,0.00021206,3.089e-05,0.0,0 STARLINK-4087,1 53156U 22083AA  23320.35017983  .00003089  00000-0  21206-3 0  9995,2 53156  53.2184 354.3837 0001363  80.4218 279.6928 15.08841302 74527,6917.876,95.437,540.684,538.799,0.0
53156.0,STARLINK-4087,PAYLOAD,2023-11-16 19:31:57,15.08837787,0.0001674,53.2174,352.3022,85.4366,274.6817,0.00010971,1.458e-05,0.0,0 STARLINK-4087,1 53156U 22083AA  23320.81386267  .00001458  00000-0  10971-3 0  9995,2 53156  53.2174 352.3022 0001674  85.4366 274.6817 15.08837787 73965,6917.887,95.438,540.91,538.594,0.0
53156.0,STARLINK-4087,PAYLOAD,2023-11-17 01:53:30,15.08836007,0.0001471,53.216,351.1129,84.9978,275.1182,0.00014529,2.025e-05,0.0,0 STARLINK-4087,1 53156U 22083AA  23321.07882406  .00002025  00000-0  14529-3 0  9994,2 53156  53.2160 351.1129 0001471  84.9978 275.1182 15.08836007 74633,6917.893,95.438,540.775,538.74,0.0
53156.0,STARLINK-4087,PAYLOAD,2023-11-17 09:50:26,15.08838864,0.0001479,53.2172,349.6272,87.9309,272.1852,9.7461e-05,1.263e-05,0.0,0 STARLINK-4087,1 53156U 22083AA  23321.41002416  .00001263  00000-0  97461-4 0  9997,2 53156  53.2172 349.6272 0001479  87.9309 272.1852 15.08838864 74056,6917.884,95.438,540.772,538.726,0.0
53156.0,STARLINK-4087,PAYLOAD,2023-11-17 19:22:44,15.08841032,0.000147,53.2173,347.8431,87.5389,272.5771,0.00012263,1.664e-05,0.0,0 STARLINK-4087,1 53156U 22083AA  23321.80746374  .00001664  00000-0  12263-3 0  9999,2 53156  53.2173 347.8431 0001470  87.5389 272.5771 15.08841032 74111,6917.877,95.437,540.759,538.725,0.0
53156.0,STARLINK-4087,PAYLOAD,2023-11-18 08:05:49,15.08846492,0.0001535,53.2173,345.4633,90.3832,269.7336,0.00017498,2.498e-05,0.0,0 STARLINK-4087,1 53156U 22083AA  23322.33738178  .00002498  00000-0  17498-3 0  9992,2 53156  53.2173 345.4633 0001535  90.3832 269.7336 15.08846492 74824,6917.861,95.437,540.787,538.664,0.0
53156.0,STARLINK-4087,PAYLOAD,2023-11-19 01:35:04,15.08841735,0.0001506,53.2174,342.1934,91.5018,268.6147,0.00017461,2.492e-05,0.0,0 STARLINK-4087,1 53156U 22083AA  23323.06602340  .00002492  00000-0  17461-3 0  9998,2 53156  53.2174 342.1934 0001506  91.5018 268.6147 15.08841735 74935,6917.875,95.437,540.782,538.698,0.0
53156.0,STARLINK-4087,PAYLOAD,2023-11-19 07:56:36,15.08845493,0.0001513,53.217,341.0021,92.8447,267.2718,0.00016418,2.326e-05,0.0,0 STARLINK-4087,1 53156U 22083AA  23323.33098193  .00002326  00000-0  16418-3 0  9990,2 53156  53.2170 341.0021 0001513  92.8447 267.2718 15.08845493 74343,6917.864,95.437,540.775,538.682,0.0
53156.0,STARLINK-4087,PAYLOAD,2023-11-20 06:12:01,15.08834079,0.0001529,53.2177,336.8397,96.0266,264.09,0.00021971,3.21e-05,0.0,0 STARLINK-4087,1 53156U 22083AA  23324.25834621  .00003210  00000-0  21971-3 0  9999,2 53156  53.2177 336.8397 0001529  96.0266 264.0900 15.08834079 75112,6917.898,95.438,540.821,538.706,0.0
53156.0,STARLINK-4087,PAYLOAD,2023-11-21 07:38:10,15.08841592,0.0001615,53.2178,332.0827,96.8642,263.2534,6.7882e-05,7.93e-06,0.0,0 STARLINK-4087,1 53156U 22083AA  23325.31818282  .00000793  00000-0  67882-4 0  9997,2 53156  53.2178 332.0827 0001615  96.8642 263.2534 15.08841592 75270,6917.876,95.437,540.858,538.623,0.0
